[Satellite]
VERSION=1.1
NAME=LEMUR-2-SPIRE-MINIONS
NICKNAME=LEMUR-2-SPIRE-MINIONS
TLE1=1 41994U 17008AY  18021.11592662  .00001684  00000-0  73704-4 0  9991
TLE2=2 41994  97.4690  86.6501 0008745 144.1188 216.0638 15.23410225 51020
